# From NK 1615
P/1996 R2 (Lagerkvist),e,2.5991,40.0484,333.4815,3.772843,0.1344934,0.31432316,297.2404,03/06.0/2025,2000,g 11.5,4.0
# From MPC 75703
P/1998 VS24 (LINEAR),e,5.0290,159.0441,244.8651,4.520941,0.1025323,0.24363266,266.1121,03/06.0/2025,2000,g 13.0,2.0
# From NK 731
P/1999 RO28 (LONEOS),e,7.5669,137.8435,231.3524,3.425304,0.1554731,0.67220901,322.9513,03/06.0/2025,2000,g 20.0,2.0
# From MPC 75704
P/1999 XN120 (Catalina),e,5.0296,285.2458,161.6373,4.181494,0.1152675,0.21134509,326.4683,03/06.0/2025,2000,g 13.5,2.0
# From NK 744
P/2000 R2 (LINEAR),e,11.6788,160.2741,176.5849,3.468820,0.1525567,0.53065246,318.6112,03/06.0/2025,2000,g 18.0,4.0
# From MPC 43019
P/2001 H5 (NEAT),e,8.3717,328.6698,224.5911,6.094824,0.0655032,0.59900069,225.2502,03/06.0/2025,2000,g 12.0,4.0
# From MPEC 2023-UR6
P/2002 EJ57 (LINEAR),e,4.9880,330.2324,167.2711,6.455591,0.0600897,0.59380504,147.2907,03/06.0/2025,2000,g 12.5,4.0
# From MPC 75007
C/2002 VQ94 (LINEAR),e,70.6716,35.1159,99.8049,186.4097,0.0003873,0.96375167,2.6968,03/06.0/2025,2000,g  9.5,2.0
# From MPC 50354
P/2003 F2 (NEAT),e,11.6691,358.9007,192.7743,6.526919,0.0591074,0.54043617,114.5323,03/06.0/2025,2000,g 16.5,2.0
# From MPEC 2025-CE3
P/2003 QX29 (NEAT),e,11.3998,264.4847,37.7533,7.999463,0.0435625,0.47128008,353.3365,03/06.0/2025,2000,g  8.5,4.0
# From MPC105235
P/2003 T12 (SOHO),e,11.0242,174.5772,219.7899,2.584083,0.2372708,0.77021388,58.1917,03/06.0/2025,2000,g 17.0,4.0
# From MPEC 2022-YN2
P/2004 FY140 (LINEAR),e,2.1625,327.2627,254.1874,4.969589,0.0889659,0.19264586,296.1435,03/06.0/2025,2000,g 12.5,2.0
# From MPC 53304
P/2004 R3 (LINEAR-NEAT),e,12.7990,305.1198,37.3063,4.749244,0.0952286,0.25436226,120.6371,03/06.0/2025,2000,g 14.5,4.0
# From MPC 75705
P/2004 V5 (LINEAR-Hill),e,19.3408,47.7421,87.2296,8.036377,0.0432627,0.44831476,321.7696,03/06.0/2025,2000,g  8.0,4.0
# From MPC 75705
P/2004 V5-B (LINEAR-Hill),e,19.3409,47.7424,87.2336,8.036674,0.0432603,0.44833400,321.7298,03/06.0/2025,2000,g  8.0,4.0
# From MPC 54164
P/2005 E1 (Tubbiolo),e,4.2607,335.5030,193.9038,7.068347,0.0524478,0.37714828,27.5363,03/06.0/2025,2000,g 10.0,4.0
# From MPC 79019
P/2005 J1 (McNaught),e,31.7405,268.7997,338.9149,3.574528,0.1458398,0.56929843,341.3754,03/06.0/2025,2000,g 16.5,4.0
# From MPC 74246
P/2005 L1 (McNaught),e,8.2108,129.5733,158.0665,3.952505,0.1254283,0.24398116,148.3893,03/06.0/2025,2000,g  9.5,4.0
# From MPC 75706
P/2005 S2 (Skiff),e,3.1382,161.3376,229.9667,7.985791,0.0436744,0.19860087,297.9208,03/06.0/2025,2000,g  7.5,4.0
# From MPC 73461
P/2005 T3 (Read),e,6.2312,27.6263,7.0406,7.577091,0.0472553,0.17464142,334.9042,03/06.0/2025,2000,g  9.0,4.0
# From MPC 73461
P/2005 T4 (SWAN),e,160.2598,25.8581,41.8215,9.352076,0.0344621,0.93059600,243.8499,03/06.0/2025,2000,g 15.0,4.0
# From MPC 75706
P/2005 T5 (Broughton),e,21.3833,57.0640,304.7752,7.259902,0.0503858,0.55184742,354.9148,03/06.0/2025,2000,g 11.0,4.0
# From MPC 75707
P/2006 HR30 (Siding Spring),e,31.9513,309.7654,117.5025,7.797913,0.0452623,0.84364754,300.5638,03/06.0/2025,2000,g 11.0,4.0
# From MPC 75707
P/2007 C2 (Catalina),e,8.6127,275.2367,180.1378,7.019580,0.0529953,0.47397785,339.8418,03/06.0/2025,2000,g 10.0,4.0
# From MPC 84315
C/2007 D1 (LINEAR),e,41.5116,171.0639,339.7282,1208,0.0000235,0.99276598,0.0000,06/13.2398/2007,2000,g  3.5,4.0
# From MPEC 2024-GJ3
P/2007 K2 (Gibbs),e,7.5998,188.4729,347.1165,7.362857,0.0493327,0.68620240,325.8775,03/06.0/2025,2000,g 14.0,4.0
# From MPC 60925
P/2007 Q2 (Gilmore),e,10.1945,172.2223,162.8593,5.661290,0.0731697,0.66887282,114.2647,03/06.0/2025,2000,g 16.0,4.0
# From MPC 73462
P/2007 S1 (Zhao),e,5.9634,141.3286,245.2694,3.818294,0.1320991,0.33805028,116.4379,03/06.0/2025,2000,g 13.0,4.0
# From MPEC 2024-GJ3
C/2007 S2 (Lemmon),e,16.9138,296.1280,210.1453,12.49548,0.0223138,0.55675905,134.5239,03/06.0/2025,2000,g  6.5,4.0
# From MPC 61994
P/2007 T2 (Kowalski),e,9.7488,3.3915,359.6701,3.043631,0.1856163,0.78549917,88.0668,03/06.0/2025,2000,g 18.5,4.0
# From MPEC 2024-GJ3
C/2008 E1 (Catalina),e,34.8649,188.9408,270.3342,10.76384,0.0279096,0.55285400,168.5961,03/06.0/2025,2000,g  7.0,4.0
# From MPC 64114
P/2008 O3 (Boattini),e,32.3169,47.6080,341.2028,8.208640,0.0419080,0.69628130,255.9337,03/06.0/2025,2000,g 13.0,4.0
# From MPC 75710
P/2008 Y3 (McNaught),e,38.7788,262.8437,238.1051,8.038673,0.0432442,0.44801590,255.9765,03/06.0/2025,2000,g  8.5,4.0
# From MPC 75710
P/2009 B1 (Boattini),e,22.2596,297.1087,128.9932,6.726879,0.0564916,0.63599733,332.8051,03/06.0/2025,2000,g 13.0,4.0
# From MPC 66466
C/2009 G1 (STEREO),e,108.0655,120.8582,175.5189,457.1760,0.0001008,0.99751275,0.0000,04/17.6714/2009,2000,g  9.0,4.0
# From MPC 75710
P/2009 O3 (Hill),e,16.2565,183.7167,154.4360,7.771159,0.0454962,0.68629382,262.1059,03/06.0/2025,2000,g 12.5,4.0
# From MPC 68902
P/2009 Q5 (McNaught),e,40.9573,160.2169,209.2049,7.425473,0.0487100,0.60942917,274.8531,03/06.0/2025,2000,g 10.0,4.0
# From MPC112389
P/2009 T2 (La Sagra),e,27.6036,216.3261,215.9871,7.708794,0.0460494,0.76749620,254.6371,03/06.0/2025,2000,g 14.0,4.0
# From MPC105235
P/2009 WX51 (Catalina),e,9.5973,31.5246,118.2897,3.082408,0.1821247,0.73964367,286.2237,03/06.0/2025,2000,g 19.0,2.0
# From MPC 74247
P/2009 Y2 (Kowalski),e,29.9738,262.0859,172.2280,6.539436,0.0589378,0.63742860,322.5329,03/06.0/2025,2000,g 13.0,4.0
# From MPC 75008
P/2010 C1 (Scotti),e,9.1157,141.5969,2.9399,7.127345,0.0517979,0.26360714,292.8467,03/06.0/2025,2000,g  9.5,4.0
# From MPC 75008
P/2010 D2 (WISE),e,57.1336,319.8755,119.9970,6.718072,0.0566027,0.45174626,311.5842,03/06.0/2025,2000,g 16.0,4.0
# From MPC 75009
P/2010 E2 (Jarnac),e,15.4205,177.8204,8.2173,8.636090,0.0388354,0.72066999,212.3655,03/06.0/2025,2000,g 14.0,4.0
# From MPC 72851
P/2010 H2 (Vales),e,14.2794,64.1877,128.0433,3.833655,0.1313060,0.19764325,359.5253,03/06.0/2025,2000,g  6.0,4.0
# From MPC 70361
P/2010 H3 (SOHO),e,23.1532,77.1900,26.0632,3.035453,0.1863669,0.98557166,0.0000,05/25.2177/2026,2000,g 20.0,2.0
# From MPEC 2024-GJ3
P/2010 H4 (Scotti),e,2.3178,44.7447,179.0822,6.617049,0.0579039,0.26694852,313.2883,03/06.0/2025,2000,g 10.5,4.0
# From MPC 74637
P/2010 H5 (Scotti),e,14.0540,24.5481,174.7381,7.173711,0.0512966,0.15476407,281.1601,03/06.0/2025,2000,g 13.0,2.0
# From MPC 98558
P/2010 J3 (McMillan),e,13.2274,106.5381,157.4313,8.987819,0.0365782,0.72416077,194.6904,03/06.0/2025,2000,g 11.0,4.0
# From MPC 84315
P/2010 JC81 (WISE),e,38.7804,30.8584,12.4985,8.102631,0.0427332,0.77816940,215.9616,03/06.0/2025,2000,g  9.0,4.0
# From MPEC 2024-H77
A/2010 LN135,e,64.4991,184.8305,181.5717,40561,0.0000001,0.99995696,0.0000,05/25.4447/2011,2000,g 14.0,2.0
# From MPC 74248
P/2010 T2 (PANSTARRS),e,7.8653,57.8672,350.4193,5.601523,0.0743438,0.32672158,27.8445,03/06.0/2025,2000,g 11.5,4.0
# From MPC 82316
P/2010 U1 (Boattini),e,8.2276,280.8078,86.5289,6.487239,0.0596505,0.24849703,327.0260,03/06.0/2025,2000,g  9.5,4.0
# From MPEC 2023-J95
C/2010 U3 (Boattini),e,55.5531,42.9910,88.0736,14784,0.0000005,0.99942924,0.0000,02/27.7176/2019,2000,g  1.0,4.0
# From MPC 79021
P/2010 UH55 (Spacewatch),e,8.0367,232.8421,225.2859,6.648991,0.0574871,0.56470111,291.9213,03/06.0/2025,2000,g 11.0,4.0
# From MPC 84021
P/2011 C2 (Gibbs),e,10.8938,11.9584,160.2725,7.409979,0.0488628,0.27087972,236.5297,03/06.0/2025,2000,g  9.0,4.0
# From MPC 79866
P/2011 FR143 (Lemmon),e,15.9635,190.8518,349.6691,6.880359,0.0546119,0.45238914,281.9737,03/06.0/2025,2000,g 14.0,2.0
# From MPC 82317
P/2011 JB15 (Spacewatch-Boattini),e,19.1258,153.5857,110.7337,7.379660,0.0491643,0.31463908,236.9162,03/06.0/2025,2000,g  9.0,4.0
# From MPC 87913
P/2011 N1 (ASH),e,35.7873,77.6296,330.4849,6.234647,0.0633120,0.54551055,294.7984,03/06.0/2025,2000,g 11.5,4.0
# From MPEC 2022-ED3
P/2011 P1 (McNaught),e,5.6526,4.2644,349.1910,7.460569,0.0483667,0.32652042,257.6341,03/06.0/2025,2000,g  9.0,4.0
# From MPEC 2022-HC2
P/2011 S1 (Gibbs),e,2.6888,218.8966,192.9089,8.594420,0.0391182,0.20120029,150.4674,03/06.0/2025,2000,g  8.0,4.0
# From MPEC 2023-UR6
P/2011 V1 (Boattini),e,7.3833,46.4902,269.6211,3.857004,0.1301154,0.54837084,306.1896,03/06.0/2025,2000,g 15.5,4.0
# From MPC 82718
P/2011 W1 (PANSTARRS),e,3.7162,161.8124,283.0012,4.673723,0.0975460,0.28854046,109.3140,03/06.0/2025,2000,g 11.5,4.0
# From MPC 79342
P/2011 Y2 (Boattini),e,6.3914,309.3207,132.0624,6.229556,0.0633897,0.71121246,300.4038,03/06.0/2025,2000,g 15.0,4.0
# From MPEC 2022-K19
P/2012 B1 (PANSTARRS),e,7.6060,36.2111,161.9493,6.540856,0.0589186,0.41000183,252.2226,03/06.0/2025,2000,g  9.0,4.0
# From MPC 78590
P/2012 C3 (PANSTARRS),e,9.0920,135.3677,344.9542,9.748681,0.0323806,0.63011148,359.9758,10/06.0/2011,2000,g 13.0,4.0
# From MPC 84931
P/2012 F2 (PANSTARRS),e,14.6985,226.9579,33.1661,6.346707,0.0616427,0.54034667,269.0933,03/06.0/2025,2000,g 12.0,4.0
# From MPEC 2022-ED3
P/2012 G1 (PANSTARRS),e,12.1680,283.2420,266.0196,4.162846,0.1160429,0.32941700,187.8734,03/06.0/2025,2000,g 15.0,4.0
# From MPC 80898
P/2012 K3 (Gibbs),e,13.1817,125.8069,172.1519,3.632185,0.1423810,0.42166758,289.2435,03/06.0/2025,2000,g 15.0,4.0
# From MPC 88326
P/2012 NJ (La Sagra),e,84.3405,315.6876,338.3919,8.467614,0.0400002,0.84646256,185.9500,03/06.0/2025,2000,g 14.5,4.0
# From MPC 81470
P/2012 O1 (McNaught),e,7.4280,91.9401,238.2852,3.543051,0.1477876,0.59356864,324.5135,03/06.0/2025,2000,g 17.5,4.0
# From MPC 80899
P/2012 O2 (McNaught),e,24.4557,120.6626,183.4199,3.629596,0.1425334,0.53121368,304.1927,03/06.0/2025,2000,g 17.0,4.0
# From MPC 82320
P/2012 T2 (PANSTARRS),e,12.5702,73.8793,311.1586,5.718085,0.0720822,0.16218607,310.5633,03/06.0/2025,2000,g 10.0,4.0
# From MPC 80900
P/2012 T3 (PANSTARRS),e,9.5539,114.3275,195.4796,6.157390,0.0645073,0.61560901,302.7844,03/06.0/2025,2000,g 15.0,4.0
# From MPC 82720
P/2012 U2 (PANSTARRS),e,10.7589,185.2838,228.4270,7.125852,0.0518142,0.50056715,232.2591,03/06.0/2025,2000,g 12.5,4.0
# From MPC 82721
P/2013 AL76 (Catalina),e,144.9100,146.0839,27.1034,6.500925,0.0594622,0.68554453,266.3492,03/06.0/2025,2000,g 16.0,4.0
